S-NET D                 
1 43186U 18014G   22088.52506745  .00001481  00000+0  13179-3 0  9997
2 43186  97.6632 355.7914 0010172 200.7732 159.3078 14.97538347226951
S-NET B                 
1 43187U 18014H   22088.52512256  .00001501  00000+0  13354-3 0  9990
2 43187  97.6629 355.7467 0010186 200.7028 159.3783 14.97537213226958
S-NET A                 
1 43188U 18014J   22088.45854702  .00001482  00000+0  13190-3 0  9994
2 43188  97.6632 355.7401 0010165 201.0197 159.0608 14.97536159226949
S-NET C                 
1 43189U 18014K   22088.52596685  .00001531  00000+0  13608-3 0  9995
2 43189  97.6627 355.7372 0010204 200.7262 159.3548 14.97534670225507
FENGMANIU-1 (FMN-1)     
1 43192U 18015A   22088.49118264  .00021109  00000+0  65108-3 0  9994
2 43192  97.5210 231.7763 0011805 314.3542  85.8045 15.33543215231177
SHAONIAN XING           
1 43199U 18015H   22088.53169863  .00013700  00000+0  45511-3 0  9991
2 43199  97.4994 227.6578 0013348 326.7284  98.0775 15.31240046231208
LUOJIA-1 01             
1 43485U 18048B   22088.48233028  .00000861  00000+0  12883-3 0  9994
2 43485  97.9364 171.0281 0012729  97.7515 262.5153 14.77132500206067
SURFSAT                 
1 43614U 18070B   22088.56583603  .00033832  00000+0  62777-3 0  9990
2 43614  93.0248  64.9973 0010215 352.5693   7.5413 15.48786238198679
CP7 (DAVE)              
1 43615U 18070C   22088.46289734  .00032125  00000+0  60988-3 0  9994
2 43615  93.0248  64.8528 0010618 353.0484   7.0626 15.48130362198634
ELFIN-B                 
1 43616U 18070D   22088.44887016  .00052379  00000+0  76776-3 0  9995
2 43616  93.0163  65.6263 0008458 350.7947   9.3160 15.55339504198874
ELFIN-A                 
1 43617U 18070E   22088.47108269  .00059415  00000+0  83607-3 0  9994
2 43617  93.0244  66.8206 0007210 347.1403  12.9676 15.56437899198911
CZ-4B R/B               
1 43656U 18081B   22088.36273549  .00000093  00000+0  45613-4 0  9995
2 43656  99.3826 215.7811 0208588  14.4743 346.2289 14.30530355178900
CUBEBEL-1 (BSUSAT-1)    
1 43666U 18083E   22088.47965446  .00007773  00000+0  34757-3 0  9992
2 43666  97.4307 118.1281 0012087 251.4595 246.9044 15.21522944189314
CHANGSHAGAOXIN (TY 4-01)
1 43669U 18083H   22088.58223441  .00006861  00000+0  32059-3 0  9999
2 43669  97.4246 114.4502 0008340 245.7522 272.5657 15.20086702189161
TEN-KOH                 
1 43677U 18084G   22088.61708543  .00001510  00000+0  15895-3 0  9999
2 43677  97.9504 218.0203 0016190 170.2690 189.8845 14.90821695185788
DIWATA-2B               
1 43678U 18084H   22088.44534360  .00000504  00000+0  55455-4 0  9994
2 43678  97.9553 220.8471 0009758 182.0408 178.0788 14.91981606185923
STARS-AO                
1 43679U 18084J   22088.58805957  .00003363  00000+0  32821-3 0  9990
2 43679  97.9601 222.7159 0008984 186.0387 174.0725 14.93097831186021
AUTCUBE 2               
1 43681U 18084K   22088.30498445  .00002298  00000+0  22911-3 0  9998
2 43681  97.9564 221.1954 0009406 182.3054 177.8123 14.92555626185895
IRVINE01                
1 43693U 18088D   22088.27891227  .00032920  00000+0  10582-2 0  9991
2 43693  85.0360   4.9570 0016825  56.8006 303.4852 15.31975093187926
ES'HAIL 2               
1 43700U 18090A   22088.50056211  .00000122  00000+0  00000+0 0  9995
2 43700   0.0257 178.6805 0002302 222.8040 351.3774  1.00270438 12222
FACSAT-1                
1 43721U 18096C   22088.50699657  .00014915  00000+0  47140-3 0  9996
2 43721  97.3565 168.5925 0013964 343.0656 142.4348 15.32808823185718
CENTAURI-2              
1 43722U 18096D   22088.49546765  .00023854  00000+0  70016-3 0  9996
2 43722  97.3599 170.1691 0013449 339.2262  20.8433 15.35063755185795
3CAT-1                  
1 43728U 18096K   22088.50603551  .00023238  00000+0  67812-3 0  9997
2 43728  97.3613 170.9026 0013131 342.2630  17.8153 15.35255877185837
INNOSAT-2               
1 43738U 18096V   22088.49908913  .00033124  00000+0  79192-3 0  9995
2 43738  97.3694 176.1451 0015375 327.5462  44.7941 15.41296785186169
REAKTOR HELLO WORLD     
1 43743U 18096AA  22088.49860985  .00012408  00000+0  40655-3 0  9991
2 43743  97.3574 168.8227 0015195 349.6376  10.4550 15.31678923185713
ELYSIUM STAR 2 & LFF    
1 43760U 18099C   22088.51547460  .00005632  00000+0  48615-3 0  9991
2 43760  97.6358 158.8098 0013933 168.5667 191.5874 14.97570439181157
2018-099D               
1 43761U 18099D   22088.59515497  .00000916  00000+0  87431-4 0  9995
2 43761  97.6310 157.4369 0014475 170.8130 189.3364 14.95613891181084
AISTECHSAT 2            
1 43768U 18099L   22088.41656791  .00002032  00000+0  18898-3 0  9997
2 43768  97.6254 155.8631 0011619 168.9594 191.1884 14.95371168180727
FOX-1CLIFF (AO-95)      
1 43770U 18099N   22088.47150975  .00003472  00000+0  31444-3 0  9990
2 43770  97.6289 156.8960 0014566 177.1187 183.0121 14.95940880181052
RANGE-A                 
1 43772U 18099Q   22088.49609704  .00002924  00000+0  26238-3 0  9999
2 43772  97.6396 158.4181 0014268 164.8978 195.2672 14.96434259181073
RANGE-B                 
1 43773U 18099R   22088.44209170  .00001686  00000+0  15639-3 0  9995
2 43773  97.6211 155.8678 0013811 165.9292 194.2316 14.95669329181033
2018-099T               
1 43775U 18099T   22088.43387165  .00001190  00000+0  11187-3 0  9991
2 43775  97.6289 157.0226 0014720 170.0932 190.0582 14.95683594181041
MOVE-II                 
1 43780U 18099Y   22088.49195492  .00003933  00000+0  34679-3 0  9991
2 43780  97.6327 157.8632 0013440 172.9382 187.2032 14.96924133181098
SNUSAT-2                
1 43782U 18099AA  22088.46150859  .00003005  00000+0  27157-3 0  9991
2 43782  97.6282 157.3245 0013270 163.3367 196.8293 14.96135296181070
SNUGLITE                
1 43784U 18099AC  22088.44247348  .00002561  00000+0  23112-3 0  9994
2 43784  97.6246 156.9634 0015154 172.7609 187.3834 14.96309929181099
ITASAT 1                
1 43786U 18099AE  22088.47429614  .00002840  00000+0  25667-3 0  9994
2 43786  97.6313 157.7704 0015356 170.7179 189.4329 14.96155562181091
KAZSCISAT-1             
1 43787U 18099AF  22088.47879710  .00004772  00000+0  41843-3 0  9991
2 43787  97.6241 156.9237 0014495 165.3086 194.8560 14.97025769181132
EAGLET-I                
1 43790U 18099AJ  22088.44763632  .00001500  00000+0  13717-3 0  9992
2 43790  97.6296 158.2600 0013440 175.0087 185.1271 14.96405215180827
ESEO                    
1 43792U 18099AL  22088.42267702  .00000829  00000+0  78873-4 0  9997
2 43792  97.6261 157.5598 0013344 171.0322 189.1140 14.96002649180867
CSIM-FD                 
1 43793U 18099AM  22088.50129958  .00003694  00000+0  32067-3 0  9994
2 43793  97.6326 158.6760 0013137 166.4271 193.7307 14.97578674180913
ASTROCAST 0.1           
1 43798U 18099AS  22088.13786989  .00003512  00000+0  31034-3 0  9993
2 43798  97.6313 158.3181 0013263 153.2699 206.9209 14.96907052181099
JY1SAT (JO-97)          
1 43803U 18099AX  22088.44881211  .00002910  00000+0  26038-3 0  9997
2 43803  97.6267 157.4866 0015300 171.9778 188.1691 14.96530517181109
SUOMI-100               
1 43804U 18099AY  22088.46225388  .00003248  00000+0  29052-3 0  9991
2 43804  97.6265 157.4356 0015527 170.7547 189.3963 14.96466667181114
AL-FARABI 2             
1 43805U 18099AZ  22088.60932417  .00003435  00000+0  30381-3 0  9991
2 43805  97.6281 157.9842 0015367 168.7511 191.4071 14.96873942181154
CENTAURI-1              
1 43809U 18099BD  22088.41721172  .00002283  00000+0  20649-3 0  9994
2 43809  97.6284 157.7189 0015233 171.3884 188.7601 14.96327665180803
CHOMPTT                 
1 43855U 18104G   22088.55036321  .00007664  00000+0  29581-3 0  9994
2 43855  85.0315 104.3651 0016930 164.6293 195.5469 15.25964636182534
DAVINCI                 
1 43857U 18104J   22088.52819848  .00026796  00000+0  87283-3 0  9996
2 43857  85.0249 103.1109 0012914 179.2146 180.9124 15.31622848182601
UWE-4                   
1 43880U 18111E   22088.43863979  .00003042  00000+0  26508-3 0  9996
2 43880  97.6752 356.1558 0010379 223.5010 136.5394 14.97599188177723
ZACUBE-2                
1 43907U 18111AH  22088.50935508  .00004282  00000+0  16611-3 0  9993
2 43907  97.2021 337.6717 0020746   9.1515 113.0859 15.26433775181099
MICRODRAGON             
1 43935U 19003D   22088.58178220  .00006095  00000+0  24799-3 0  9993
2 43935  97.1472 122.3306 0019159  98.0388 262.3025 15.24694897177521
AOBA VELOX-IV           
1 43940U 19003J   22088.56459614  .00024407  00000+0  77457-3 0  9992
2 43940  97.1400 127.0027 0021443  75.3162 285.0456 15.32436293177878
M6P                     
1 44109U 19018AF  22088.48752217  .00016892  00000+0  45141-3 0  9996
2 44109  97.3994 171.9707 0051487  56.1342 304.4785 15.36777911167168
FORMOSAT 7-4            
1 44350U 19036M   22088.68928811  .00004748  00000+0  27353-3 0  9993
2 44350  23.9992 211.9785 0005506 206.6760 153.3461 15.08691070151476
PAINANI 1               
1 44365U 19037A   22088.32132065  .00029156  00000+0  54829-3 0  9997
2 44365  45.0005 104.3201 0006342  71.0425 289.1153 15.48080143154792
ACRUX 1                 
1 44369U 19037E   22088.37935726  .00108549  00000+0  10876-2 0  9998
2 44369  45.0001  59.2540 0013204 110.4829 249.7487 15.64413254155285
METEOR-M2 2             
1 44387U 19038A   22088.45569794  .00000024  00000+0  29788-4 0  9999
2 44387  98.7132  49.9160 0002117 117.0404 243.0986 14.23703020142028
VDNH-80                 
1 44392U 19038G   22088.46225450  .00007450  00000+0  39339-3 0  9996
2 44392  97.6264  57.9155 0021858  52.0998  66.2750 15.15609907150721
D-STAR ONE (LIGHTSAT)   
1 44393U 19038H   22088.45288234  .00009901  00000+0  52173-3 0  9999
2 44393  97.6278  57.7759 0022082  53.3232 307.0026 15.15585080150918
AMGU-1 (AMURSAT)        
1 44394U 19038J   22088.59714377  .00008241  00000+0  43386-3 0  9999
2 44394  97.6273  57.8610 0022448  52.4103 307.9192 15.15669418150937
